OBJECT_NAME,OBJECT_ID,EPOCH,MEAN_MOTION,ECCENTRICITY,INCLINATION,RA_OF_ASC_NODE,ARG_OF_PERICENTER,MEAN_ANOMALY,EPHEMERIS_TYPE,CLASSIFICATION_TYPE,NORAD_CAT_ID,ELEMENT_SET_NO,REV_AT_EPOCH,BSTAR,MEAN_MOTION_DOT,MEAN_MOTION_DDOT
GSAT0216 (GALILEO 20),2017-079B,2026-07-16T01:10:45.396192,1.70474464,.000491,55.0677,220.7120,277.5632,82.4337,0,U,43056,999,5349,0,.52E-6,0
GSAT0217 (GALILEO 21),2017-079C,2026-07-17T10:38:02.901696,1.70474425,.00042176,55.0656,220.6714,291.8974,68.1010,0,U,43057,999,5350,0,.47E-6,0
GSAT0218 (GALILEO 22),2017-079D,2026-07-15T21:40:57.162432,1.70474408,.0005401,55.0660,220.7113,274.7995,85.1927,0,U,43058,999,5350,0,.53E-6,0
BEIDOU-3 M7 (C27),2018-003A,2026-07-15T06:32:23.968032,1.86228000,.00043462,54.3016,301.3358,99.7203,260.3603,0,U,43107,999,5787,0,-.7E-6,0
BEIDOU-3 M8 (C28),2018-003B,2026-07-16T06:58:40.024992,1.86230859,.0003089,54.2930,301.2814,256.6040,103.3959,0,U,43108,999,5790,0,-.75E-6,0
BEIDOU-3 M4 (C22),2018-018A,2026-07-14T01:10:47.817984,1.86230761,.0007449,56.6746,62.2635,28.5883,331.5267,0,U,43207,999,5724,0,-.38E-6,0
BEIDOU-3 M3 (C21),2018-018B,2026-07-17T08:05:50.612640,1.86230865,.00076585,56.6771,62.1587,346.9087,13.1423,0,U,43208,999,5730,0,-.55E-6,0
BEIDOU-3 M9 (C29),2018-029A,2026-07-15T09:46:53.785344,1.86227874,.00012374,54.1665,298.9609,187.3029,172.7315,0,U,43245,999,5642,0,-.67E-6,0
BEIDOU-3 M10 (C30),2018-029B,2026-07-16T22:51:49.323744,1.86229048,.00032399,54.1629,298.9337,37.5825,322.4793,0,U,43246,999,5643,0,-.77E-6,0
IRNSS-1I,2018-035A,2026-07-16T17:59:38.660928,1.00272376,.00184089,28.8220,73.7347,178.6594,7.1470,0,U,43286,999,3037,0,.6E-6,0
COSMOS 2527 (756),2018-053A,2026-07-15T17:01:58.361664,2.13102044,.00064338,65.5932,72.9565,229.6804,130.3403,0,U,43508,999,6288,0,-.11E-6,0
BEIDOU-2 IGSO-7 (C16),2018-057A,2026-07-16T19:52:42.225600,1.00242392,.01049148,55.1987,162.7987,237.9691,299.1450,0,U,43539,999,2942,0,-.84E-6,0
GSAT0221 (GALILEO 25),2018-060A,2026-07-17T13:36:55.120032,1.70476136,.00027013,57.1585,340.9609,283.6812,76.2771,0,U,43564,999,4968,0,-.104E-5,0
GSAT0222 (GALILEO 26),2018-060B,2026-07-17T18:53:17.244096,1.70475909,.00028604,57.1619,340.9586,235.0008,124.9612,0,U,43565,999,4973,0,-.104E-5,0
GSAT0219 (GALILEO 23),2018-060C,2026-07-15T15:52:35.098176,1.70476050,.00018362,57.1620,341.0175,298.1228,61.8439,0,U,43566,999,4967,0,-.101E-5,0
GSAT0220 (GALILEO 24),2018-060D,2026-07-17T01:20:12.612192,1.70475831,.00021564,57.1613,340.9792,287.6741,72.2898,0,U,43567,999,4968,0,-.103E-5,0
BEIDOU-3 M5 (C23),2018-062A,2026-07-16T02:27:45.852192,1.86228746,.0005659,54.0864,181.3210,293.1569,66.7535,0,U,43581,999,5417,0,.39E-6,0
BEIDOU-3 M6 (C24),2018-062B,2026-07-15T23:11:21.391584,1.86227848,.00053648,54.0864,181.3149,10.9821,348.9999,0,U,43582,999,5417,0,.39E-6,0
BEIDOU-3 M12 (C26),2018-067A,2026-07-14T19:56:16.514880,1.86227572,.00079415,54.1815,180.1029,30.1280,329.8903,0,U,43602,999,5363,0,.41E-6,0
BEIDOU-3 M11 (C25),2018-067B,2026-07-17T15:36:59.407776,1.86226981,.00046656,54.1790,179.9710,13.3559,346.6247,0,U,43603,999,5371,0,.49E-6,0
BEIDOU-3 M13 (C32),2018-072A,2026-07-13T20:19:15.504672,1.86231187,.00062359,56.6475,61.7808,333.7731,26.2691,0,U,43622,999,5315,0,-.39E-6,0
BEIDOU-3 M14 (C33),2018-072B,2026-07-15T20:38:20.395392,1.86231129,.00055578,56.6514,61.7086,10.9419,349.1444,0,U,43623,999,5318,0,-.45E-6,0
BEIDOU-3 M16 (C35),2018-078A,2026-07-16T00:21:25.324416,1.86232227,.00065971,54.0618,298.9748,39.6301,320.4557,0,U,43647,999,5269,0,-.71E-6,0
BEIDOU-3 M15 (C34),2018-078B,2026-07-17T18:07:10.725600,1.86232380,.00034568,54.0559,298.9138,57.6139,302.4590,0,U,43648,999,5274,0,-.83E-6,0
BEIDOU-3 G1 (C59),2018-085A,2026-07-18T05:25:57.645696,1.00272485,.00080189,2.9453,96.5298,356.8946,84.0711,0,U,43683,999,2837,0,-.118E-5,0
COSMOS 2529 (757),2018-086A,2026-07-16T06:36:13.132800,2.13101958,.00121262,64.2972,191.6121,256.3116,103.5531,0,U,43687,999,5990,0,.52E-6,0
BEIDOU-3 M17 (C36),2018-093A,2026-07-15T05:37:11.800704,1.86228289,.00101217,54.1700,181.3447,294.3653,66.9155,0,U,43706,999,5206,0,.4E-6,0
BEIDOU-3 M18 (C37),2018-093B,2026-07-16T16:57:33.359040,1.86226527,.00081568,54.1709,181.2870,323.7143,36.1996,0,U,43707,999,5208,0,.42E-6,0
GPS BIII-1  (PRN 04),2018-109A,2026-07-18T04:01:07.370688,2.00563026,.00386643,55.7005,90.9640,197.0943,335.8399,0,U,43873,999,5569,0,-.31E-6,0
BEIDOU-3 IGSO-1 (C38),2019-023A,2026-07-16T07:41:18.119904,1.00282972,.00259114,58.7368,37.3490,224.0979,267.2124,0,U,44204,999,750,0,-.209E-5,0
BEIDOU-2 G8 (C01),2019-027A,2026-07-18T07:04:05.479968,1.00270825,.00096784,1.7353,74.5049,282.2369,189.9016,0,U,44231,999,2639,0,-.256E-5,0
